CCSDS_OEM_VERS = 2.0
CREATION_DATE  = 2023-11-29T16:26:35.171
ORIGINATOR     = NASA/JSC/FOD/TOPO

META_START
OBJECT_NAME          = ISS
OBJECT_ID            = 1998-067-A
CENTER_NAME          = Earth
REF_FRAME            = EME2000
TIME_SYSTEM          = UTC
START_TIME           = 2023-11-29T13:52:28.502
USEABLE_START_TIME   = 2023-11-29T13:52:28.502
USEABLE_STOP_TIME    = 2023-12-14T13:52:28.502
STOP_TIME            = 2023-12-14T13:52:28.502
META_STOP

COMMENT Source: This file was produced by the TOPO office within FOD at JSC.
COMMENT Units are in kg and m^2
COMMENT MASS=464789.00
COMMENT DRAG_AREA=1693.60
COMMENT DRAG_COEFF=2.50
COMMENT SOLAR_RAD_AREA=0.00
COMMENT SOLAR_RAD_COEFF=0.00
COMMENT Orbits start at the ascending node epoch
COMMENT ISS first asc. node: EPOCH = 2023-11-29T15:21:12.258 $ ORBIT = 2744 $ LAN(DEG) = -69.50140
COMMENT ISS last asc. node : EPOCH = 2023-12-14T12:44:08.699 $ ORBIT = 2975 $ LAN(DEG) = -118.71731
COMMENT Begin sequence of events
COMMENT TRAJECTORY EVENT SUMMARY:
COMMENT 
COMMENT |       EVENT        |       TIG        | ORB |   DV    |   HA    |   HP    |
COMMENT |                    |       GMT        |     |   M/S   |   KM    |   KM    |
COMMENT |                    |                  |     |  (F/S)  |  (NM)   |  (NM)   |
COMMENT =============================================================================
COMMENT  86P Launch            335:09:25:11.000             0.0     422.1     410.5
COMMENT                                                    (0.0)   (227.9)   (221.7)
COMMENT 
COMMENT  86P_Docking           337:11:14:52.000             0.0     422.0     410.2
COMMENT                                                    (0.0)   (227.9)   (221.5)
COMMENT 
COMMENT =============================================================================
COMMENT End sequence of events
2023-12-06T12:30:00.000 -429.157208499156 4232.975986783980 -5302.995972713620 -7.48571967415879 -1.47608868008675 -0.57129377172539
2023-12-06T12:34:00.000 -2188.460774953540 3729.764019212820 -5245.920329911350 -7.08602008266539 -2.69190362021100 1.04408209768919
2023-12-06T12:38:00.000 -3789.262317621500 2956.446511956310 -4807.849211084310 -6.17273620653848 -3.71336842795413 2.58446834992813
2023-12-06T12:42:00.000 -5115.390585991160 1968.852427730460 -4020.311624145880 -4.81075059804788 -4.46664554337727 3.93857742036460
2023-12-06T12:46:00.000 -6070.242496619600 838.384402674206 -2940.178662883880 -3.09739565913864 -4.89659562450166 5.00776861499296
2023-12-06T12:50:00.000 -6583.865740090340 -353.002131590376 -1645.749918660440 -1.15620697077025 -4.97102335972956 5.71324882259939
2023-12-06T12:54:00.000 -6618.274075053740 -1518.682044989060 -231.211936244910 0.87158292580997 -4.68353399755581 6.00234581490940
2023-12-06T12:58:00.000 -6170.473760799120 -2573.699666237910 1200.206822181390 2.83740704601886 -4.05443319297495 5.85293179344329
2023-12-06T13:02:00.000 -5272.876211996720 -3441.097964506330 2543.877565114110 4.59679186093487 -3.12966475138944 5.27561597788354
2023-12-06T13:06:00.000 -3990.910293227530 -4057.664915471550 3701.591135606510 6.02080964708087 -1.97703206130475 4.31286335990609
2023-12-06T13:10:00.000 -2418.117364153470 -4378.567330309080 4588.820191762320 7.00555109265648 -0.68091628274913 3.03548222990465
2023-12-06T13:14:00.000 -669.198931035678 -4380.584466207470 5140.903299558110 7.47964014308321 0.66409389740525 1.53713923823883
2023-12-06T13:18:00.000 1128.437084037390 -4063.723061404690 5317.698402072040 7.40913808996369 1.96022333773716 -0.07280482261032
2023-12-06T13:22:00.000 2843.947683582260 -3451.129705120190 5106.395314469330 6.79944256470041 3.11354348400854 -1.67727975596691
2023-12-06T13:26:00.000 4352.470937100320 -2587.380020143160 4522.398387125640 5.69471885971109 4.04043344385228 -3.15961539812322
2023-12-06T13:30:00.000 5544.128191310950 -1535.286558584960 3608.238152435920 4.17495723962422 4.67346838125275 -4.41177346874111
2023-12-06T13:34:00.000 6332.020793947270 -371.395267354239 2430.559295308030 2.35059563277783 4.96633737551986 -5.34207313389203
2023-12-06T13:38:00.000 6658.671601363820 819.548197663873 1075.333798006570 0.35488761286147 4.89751630811703 -5.88221305607306
2023-12-06T13:42:00.000 6500.342525013950 1950.816694632730 -358.442534225945 -1.66605109308321 4.47213425631482 -5.99266407864212
2023-12-06T13:46:00.000 5868.817567058130 2940.102478702670 -1766.066385810350 -3.56418110899381 3.72168391966763 -5.66573278638348
2023-12-06T13:50:00.000 4810.493577846420 3715.605601222640 -3044.910860669810 -5.20101664251344 2.70164222662806 -4.92626867295720
2023-12-06T13:54:00.000 3402.783375700970 4221.279190077890 -4102.003863673560 -6.45813998535911 1.48691293475314 -3.82927602505041
2023-12-06T13:58:00.000 1748.253744532820 4420.804874964820 -4860.754894306220 -7.24556688471379 0.16592923223678 -2.45532084631899
2023-12-06T14:02:00.000 -32.952267837743 4300.055552940850 -5266.354418799800 -7.50755284605414 -1.16591828667533 -0.90422495925457
2023-12-06T14:06:00.000 -1811.776813921070 3867.965965775600 -5289.552870033130 -7.22589464478718 -2.41295352582493 0.71209413440636
2023-12-06T14:10:00.000 -3459.403964713310 3155.811378291520 -4928.646017883090 -6.42075403109882 -3.48571983295721 2.27731499302903
2023-12-06T14:14:00.000 -4856.342317379780 2214.999203702110 -4209.594122020190 -5.14928639163998 -4.30683972674584 3.67850314736691
2023-12-06T14:18:00.000 -5900.937423706440 1113.510361481800 -3184.284470635610 -3.50220554430155 -4.81642196859789 4.81380935084051
2023-12-06T14:22:00.000 -6516.778188012000 -68.860932359945 -1926.976358381890 -1.59800781770523 -4.97657048947993 5.59981487563813
2023-12-06T14:26:00.000 -6658.448727013890 -1246.202896671190 -529.080618309324 0.42501639435129 -4.77461215145545 5.97798687141398
2023-12-06T14:30:00.000 -6315.108466919020 -2332.758444286400 907.450310212981 2.41886734936448 -4.22457062303084 5.91965863275599
2023-12-06T14:34:00.000 -5511.473894650870 -3249.281849193830 2277.645168060250 4.23712972362100 -3.36636711509857 5.42854222264877
2023-12-06T14:38:00.000 -4306.077892875310 -3928.946110641980 3481.334475966550 5.74628585210574 -2.26291167218518 4.54070942253617
2023-12-06T14:42:00.000 -2786.882845281930 -4322.301198579330 4430.615820770820 6.83615673245522 -0.99511390725353 3.32155830576803
2023-12-06T14:46:00.000 -1064.685917776200 -4400.843679947700 5056.282171052850 7.42770838822513 0.34448690997531 1.86048090987222
2023-12-06T14:50:00.000 735.037747067698 -4159.001262627170 5312.801521739800 7.47833584023437 1.65848582470180 0.26415920107147
2023-12-06T14:54:00.000 2481.266297560460 -3614.467085286150 5181.552845156020 6.98466652922498 2.85157322666085 -1.35119736829001
2023-12-06T14:58:00.000 4046.900916352020 -2806.876919952210 4672.115045866150 5.98251877403847 3.83726965095247 -2.86817671002090
2023-12-06T15:02:00.000 5317.911328754560 -1794.955868957680 3821.579734885270 4.54439352332400 4.54390985044322 -4.17625534563787
2023-12-06T15:06:00.000 6201.622349446940 -652.324321271259 2691.941021261670 2.77475370303120 4.91981538580862 -5.17972207524114
2023-12-06T15:10:00.000 6633.559818862530 537.817123073392 1365.647845646140 0.80272060332007 4.93737324512254 -5.80493285424185
2023-12-06T15:14:00.000 6582.281404385270 1688.775686692950 -60.412769366618 -1.22726021201800 4.59533869950829 -6.00603055211159
2023-12-06T15:18:00.000 6051.755440245310 2716.779864973430 -1482.083108632640 -3.16647640137403 3.91913463915322 -5.76867559119689
2023-12-06T15:22:00.000 5081.008758516150 3547.173138836160 -2795.670392157060 -4.87334154421814 2.95878620003667 -5.11103004284393
2023-12-06T15:26:00.000 3741.114645798210 4119.877235795600 -3905.607855948080 -6.22407378439486 1.78494133035122 -4.08216061351430
2023-12-06T15:30:00.000 2129.787763692400 4393.694560692680 -4731.416604868620 -7.12174537453876 0.48325019873235 -2.75784580242968
2023-12-06T15:34:00.000 364.114269386725 4349.137183266460 -5213.415753479150 -7.50269337757463 -0.85213291328011 -1.23451080249482
2023-12-06T15:38:00.000 -1427.932836797560 3989.666477798850 -5316.846606977410 -7.34027910802051 -2.12522509876963 0.37781300081483
2023-12-06T15:42:00.000 -3116.591450740280 3341.347538403200 -5034.232919798990 -6.64626847777875 -3.24469721620572 1.96309995441016
2023-12-06T15:46:00.000 -4579.462658565520 2450.990932726890 -4385.888952169890 -5.46992792715305 -4.12997336023299 3.40707716878021
2023-12-06T15:50:00.000 -5710.193971761920 1382.900986058400 -3418.567434642020 -3.89503986999483 -4.71669655320143 4.60497915415219
2023-12-06T15:54:00.000 -6426.186917433800 214.397680071941 -2202.271897685250 -2.03469926964867 -4.96148158155898 5.46901449309832
2023-12-06T15:58:00.000 -6674.765233083590 -969.678059289012 -825.357286059496 -0.02371477316169 -4.84550452957350 5.93506118944235
2023-12-06T16:02:00.000 -6437.269449727310 -2083.123536050450 611.816975521197 1.99099364677676 -4.37640280006186 5.96793546518238
2023-12-06T16:06:00.000 -5730.648766172200 -3044.752285057740 2004.267087664870 3.86155333912892 -3.58810978835441 5.56459615326396
2023-12-06T16:10:00.000 -4606.297751566000 -3784.442116931970 3250.202103374000 5.45064109140507 -2.53828883307174 4.75451070674649
2023-12-06T16:14:00.000 -3146.242577991030 -4248.331441747120 4258.596970911560 6.64196335471451 -1.30391465426662 3.59733016850154
2023-12-06T16:18:00.000 -1456.996236766360 -4402.760050347810 4955.902334721600 7.34897598746482 0.02475937766315 2.17804806194482
2023-12-06T16:22:00.000 338.344287035624 -4236.637693387760 5291.359595320680 7.52076761015466 1.35106897847960 0.60037817675742
2023-12-06T16:26:00.000 2109.071466440280 -3762.149610532930 5240.589757857130 7.14512907087302 2.57883166523431 -1.02086261430007
2023-12-06T16:30:00.000 3726.291847614010 -3013.842787170850 4807.307814961960 6.24932352476051 3.61899520479797 -2.56775619176406
